SPAWAR-CAL-O            
1 43766U 18099J   26068.73975788  .00021069  00000+0  69663-3 0  9999
2 43766  97.4452 132.0993 0007239 285.0670  74.9770 15.31356755398280
STARLINK-34561          
1 65081U 25167D   26068.27442538  .00034144  00000+0  11595-2 0  9996
2 65081  53.1613  25.9812 0001200  83.3897 276.7240 15.30202692 34701
