[{"OBJECT_NAME":"SPAWAR-CAL-O","OBJECT_ID":"2018-099J","EPOCH":"2026-03-09T17:45:15.080832","MEAN_MOTION":15.31356755,"ECCENTRICITY":0.00072392,"INCLINATION":97.4452,"RA_OF_ASC_NODE":132.0993,"ARG_OF_PERICENTER":285.067,"MEAN_ANOMALY":74.977,"EPHEMERIS_TYPE":0,"CLASSIFICATION_TYPE":"U","NORAD_CAT_ID":43766,"ELEMENT_SET_NO":999,"REV_AT_EPOCH":39828,"BSTAR":0.00069663212,"MEAN_MOTION_DOT":0.00021069,"MEAN_MOTION_DDOT":0},{"OBJECT_NAME":"STARLINK-34561","OBJECT_ID":"2025-167D","EPOCH":"2026-03-09T06:35:10.352832","MEAN_MOTION":15.30202692,"ECCENTRICITY":0.00012005,"INCLINATION":53.1613,"RA_OF_ASC_NODE":25.9812,"ARG_OF_PERICENTER":83.3897,"MEAN_ANOMALY":276.724,"EPHEMERIS_TYPE":0,"CLASSIFICATION_TYPE":"U","NORAD_CAT_ID":65081,"ELEMENT_SET_NO":999,"REV_AT_EPOCH":3470,"BSTAR":0.0011595411,"MEAN_MOTION_DOT":0.00034144,"MEAN_MOTION_DDOT":0}]
